NORAD_CAT_ID,OBJECT_NAME,OBJECT_TYPE,EPOCH,MEAN_MOTION,ECCENTRICITY,INCLINATION,RA_OF_ASC_NODE,ARG_OF_PERICENTER,MEAN_ANOMALY,BSTAR,MEAN_MOTION_DOT,MEAN_MOTION_DDOT,TLE_LINE0,TLE_LINE1,TLE_LINE2,SEMIMAJOR_AXIS,PERIOD,APOGEE,PERIGEE,DECAYED
54009.0,STARLINK-5099,PAYLOAD,2023-05-26 21:08:55,15.08837989,0.0001294,53.2167,102.8439,99.7265,260.3874,2.0953e-05,4.6e-07,0.0,0 STARLINK-5099,1 54009U 22125AX  23146.88119883  .00000046  00000-0  20953-4 0  9995,2 54009  53.2167 102.8439 0001294  99.7265 260.3874 15.08837989 35810,6917.887,95.438,540.647,538.856,0.0
54009.0,STARLINK-5099,PAYLOAD,2023-05-27 06:41:14,15.08841555,0.0001335,53.2168,101.061,97.5075,262.6069,4.7563e-05,4.69e-06,0.0,0 STARLINK-5099,1 54009U 22125AX  23147.27863558  .00000469  00000-0  47563-4 0  9999,2 54009  53.2168 101.0610 0001335  97.5075 262.6069 15.08841555 35921,6917.876,95.437,540.664,538.817,0.0
54009.0,STARLINK-5099,PAYLOAD,2023-05-28 03:21:15,15.08838349,0.0001307,53.2172,97.1956,89.5987,270.5155,-1.9019e-05,-5.91e-06,0.0,0 STARLINK-5099,1 54009U 22125AX  23148.13976124 -.00000591  00000-0 -19019-4 0  9992,2 54009  53.2172  97.1956 0001307  89.5987 270.5155 15.08838349 36052,6917.885,95.438,540.655,538.846,0.0
54009.0,STARLINK-5099,PAYLOAD,2023-05-28 20:50:29,15.08842542,0.0001291,53.2169,93.9247,89.8771,270.2369,4.5577e-05,4.38e-06,0.0,0 STARLINK-5099,1 54009U 22125AX  23148.86839740  .00000438  00000-0  45577-4 0  9990,2 54009  53.2169  93.9247 0001291  89.8771 270.2369 15.08842542 36112,6917.873,95.437,540.631,538.845,0.0
54009.0,STARLINK-5099,PAYLOAD,2023-05-29 03:12:01,15.08848511,0.000137,53.2175,92.7364,91.4368,268.6781,9.5111e-05,1.226e-05,0.0,0 STARLINK-5099,1 54009U 22125AX  23149.13335172  .00001226  00000-0  95111-4 0  9996,2 54009  53.2175  92.7364 0001370  91.4368 268.6781 15.08848511 36206,6917.854,95.437,540.667,538.772,0.0
54009.0,STARLINK-5099,PAYLOAD,2023-05-29 20:41:17,15.08834027,0.0001325,53.2179,89.467,89.5648,270.5496,1.4647e-05,-5.5e-07,0.0,0 STARLINK-5099,1 54009U 22125AX  23149.86200533 -.00000055  00000-0  14647-4 0  9993,2 54009  53.2179  89.4670 0001325  89.5648 270.5496 15.08834027 36260,6917.899,95.438,540.68,538.847,0.0
54009.0,STARLINK-5099,PAYLOAD,2023-05-30 03:02:49,15.08832813,0.000121,53.2173,88.2774,88.8412,271.2718,-1.0395e-05,-4.53e-06,0.0,0 STARLINK-5099,1 54009U 22125AX  23150.12696758 -.00000453  00000-0 -10395-4 0  9991,2 54009  53.2173  88.2774 0001210  88.8412 271.2718 15.08832813 36356,6917.902,95.438,540.604,538.93,0.0
54009.0,STARLINK-5099,PAYLOAD,2023-05-30 18:56:41,15.0884024,0.0001242,53.2172,85.3033,89.8887,270.2247,-2.6879e-05,-7.16e-06,0.0,0 STARLINK-5099,1 54009U 22125AX  23150.78936538 -.00000716  00000-0 -26879-4 0  9992,2 54009  53.2172  85.3033 0001242  89.8887 270.2247 15.08840240 36408,6917.88,95.438,540.604,538.885,0.0
54009.0,STARLINK-5099,PAYLOAD,2023-05-31 02:53:36,15.08843802,0.0001235,53.2173,83.8165,89.2462,270.8671,5.4905e-06,-2e-06,0.0,0 STARLINK-5099,1 54009U 22125AX  23151.12056198 -.00000200  00000-0  54905-5 0  9995,2 54009  53.2173  83.8165 0001235  89.2462 270.8671 15.08843802 36508,6917.869,95.437,540.588,538.879,0.0
54009.0,STARLINK-5099,PAYLOAD,2023-05-31 04:28:59,15.08850221,0.0001438,53.2174,83.519,97.1861,262.9295,-1.1396e-05,-4.69e-06,0.0,0 STARLINK-5099,1 54009U 22125AX  23151.18679846 -.00000469  00000-0 -11396-4 0  9996,2 54009  53.2174  83.5190 0001438  97.1861 262.9295 15.08850221 36462,6917.849,95.437,540.709,538.719,0.0
54009.0,STARLINK-5099,PAYLOAD,2023-06-01 04:19:46,15.08844262,0.000126,53.217,79.0583,109.1125,251.0003,0.00013826,1.913e-05,0.0,0 STARLINK-5099,1 54009U 22125AX  23152.18039795  .00001913  00000-0  13826-3 0  9992,2 54009  53.2170  79.0583 0001260 109.1125 251.0003 15.08844262 36615,6917.867,95.437,540.604,538.861,0.0
54009.0,STARLINK-5099,PAYLOAD,2023-06-02 02:35:10,15.08842407,0.0001284,53.2177,74.8935,97.3835,262.7303,2.367e-05,8.9e-07,0.0,0 STARLINK-5099,1 54009U 22125AX  23153.10776456  .00000089  00000-0  23670-4 0  9999,2 54009  53.2177  74.8935 0001284  97.3835 262.7303 15.08842407 36800,6917.873,95.437,540.626,538.85,0.0
54009.0,STARLINK-5099,PAYLOAD,2023-06-02 18:29:02,15.08838655,0.0001279,53.2183,71.9211,86.3675,273.7464,-4.7836e-05,-1.049e-05,0.0,0 STARLINK-5099,1 54009U 22125AX  23153.77017252 -.00001049  00000-0 -47836-4 0  9993,2 54009  53.2183  71.9211 0001279  86.3675 273.7464 15.08838655 36907,6917.885,95.438,540.634,538.865,0.0
54009.0,STARLINK-5099,PAYLOAD,2023-06-03 18:19:49,15.08844121,0.0001234,53.218,67.4604,85.0833,275.03,4.1456e-05,3.72e-06,0.0,0 STARLINK-5099,1 54009U 22125AX  23154.76376692  .00000372  00000-0  41456-4 0  9997,2 54009  53.2180  67.4604 0001234  85.0833 275.0300 15.08844121 37059,6917.868,95.437,540.586,538.879,0.0
54009.0,STARLINK-5099,PAYLOAD,2023-06-03 21:30:35,15.08860988,0.0001224,53.2181,66.8665,74.7617,285.3511,-0.00011802,-2.167e-05,0.0,0 STARLINK-5099,1 54009U 22125AX  23154.89624341 -.00002167  00000-0 -11802-3 0  9995,2 54009  53.2181  66.8665 0001224  74.7617 285.3511 15.08860988 37028,6917.816,95.436,540.528,538.834,0.0
54009.0,STARLINK-5099,PAYLOAD,2023-06-04 03:52:07,15.08847581,0.0001288,53.2181,65.6762,85.1104,275.0035,0.00016562,2.349e-05,0.0,0 STARLINK-5099,1 54009U 22125AX  23155.16120003  .00002349  00000-0  16562-3 0  9990,2 54009  53.2181  65.6762 0001288  85.1104 275.0035 15.08847581 37111,6917.857,95.437,540.613,538.831,0.0
54009.0,STARLINK-5099,PAYLOAD,2023-06-04 18:10:36,15.0883743,0.0001301,53.2178,62.9985,94.4183,265.6958,3.3556e-05,2.46e-06,0.0,0 STARLINK-5099,1 54009U 22125AX  23155.75737039  .00000246  00000-0  33556-4 0  9995,2 54009  53.2178  62.9985 0001301  94.4183 265.6958 15.08837430 37201,6917.888,95.438,540.653,538.853,0.0
54009.0,STARLINK-5099,PAYLOAD,2023-06-04 21:21:22,15.0884042,0.0001263,53.218,62.4043,101.3618,258.7516,5.5164e-05,5.9e-06,0.0,0 STARLINK-5099,1 54009U 22125AX  23155.88984740  .00000590  00000-0  55164-4 0  9993,2 54009  53.2180  62.4043 0001263 101.3618 258.7516 15.08840420 37174,6917.879,95.438,540.618,538.87,0.0
54009.0,STARLINK-5099,PAYLOAD,2023-06-05 03:42:55,15.08841768,0.0001316,53.2181,61.2157,87.3134,272.8008,8.2381e-05,1.023e-05,0.0,0 STARLINK-5099,1 54009U 22125AX  23156.15480637  .00001023  00000-0  82381-4 0  9993,2 54009  53.2181  61.2157 0001316  87.3134 272.8008 15.08841768 37217,6917.875,95.437,540.65,538.83,0.0
54009.0,STARLINK-5099,PAYLOAD,2023-06-06 00:22:56,15.08842547,0.0001226,53.2181,57.3483,88.8334,271.2799,-4.281e-05,-9.69e-06,0.0,0 STARLINK-5099,1 54009U 22125AX  23157.01592981 -.00000969  00000-0 -42810-4 0  9998,2 54009  53.2181  57.3483 0001226  88.8334 271.2799 15.08842547 37398,6917.873,95.437,540.586,538.889,0.0
54009.0,STARLINK-5099,PAYLOAD,2023-06-07 00:13:43,15.0883978,0.0001154,53.2176,52.8921,90.487,269.6254,5.7844e-05,6.33e-06,0.0,0 STARLINK-5099,1 54009U 22125AX  23158.00953045  .00000633  00000-0  57844-4 0  9999,2 54009  53.2176  52.8921 0001154  90.4870 269.6254 15.08839780 37496,6917.881,95.438,540.544,538.948,0.0
54009.0,STARLINK-5099,PAYLOAD,2023-06-07 16:07:35,15.08832796,0.0001181,53.2175,49.9188,92.3564,267.7563,7.0908e-05,8.41e-06,0.0,0 STARLINK-5099,1 54009U 22125AX  23158.67193628  .00000841  00000-0  70908-4 0  9992,2 54009  53.2175  49.9188 0001181  92.3564 267.7563 15.08832796 37647,6917.902,95.438,540.584,538.95,0.0
54009.0,STARLINK-5099,PAYLOAD,2023-06-08 01:39:53,15.08838705,0.0001161,53.2173,48.1336,86.824,273.2885,5.7783e-05,6.32e-06,0.0,0 STARLINK-5099,1 54009U 22125AX  23159.06937431  .00000632  00000-0  57783-4 0  9998,2 54009  53.2173  48.1336 0001161  86.8240 273.2885 15.08838705 37654,6917.884,95.438,540.553,538.946,0.0
54009.0,STARLINK-5099,PAYLOAD,2023-06-09 01:30:40,15.08849155,0.0001221,53.2177,43.6707,89.2992,270.814,0.0001193,1.612e-05,0.0,0 STARLINK-5099,1 54009U 22125AX  23160.06296677  .00001612  00000-0  11930-3 0  9992,2 54009  53.2177  43.6707 0001221  89.2992 270.8140 15.08849155 37858,6917.852,95.437,540.562,538.873,0.0
54009.0,STARLINK-5099,PAYLOAD,2023-06-09 09:27:36,15.08844402,0.0001147,53.2168,42.1863,82.2374,277.8748,5.2635e-05,5.5e-06,0.0,0 STARLINK-5099,1 54009U 22125AX  23160.39417136  .00000550  00000-0  52635-4 0  9991,2 54009  53.2168  42.1863 0001147  82.2374 277.8748 15.08844402 37906,6917.867,95.437,540.525,538.938,0.0
54009.0,STARLINK-5099,PAYLOAD,2023-06-09 22:10:41,15.08839041,0.0001146,53.218,39.8049,91.7375,268.3748,5.6267e-05,6.08e-06,0.0,0 STARLINK-5099,1 54009U 22125AX  23160.92409497  .00000608  00000-0  56267-4 0  9990,2 54009  53.2180  39.8049 0001146  91.7375 268.3748 15.08839041 37935,6917.883,95.438,540.541,538.956,0.0
54009.0,STARLINK-5099,PAYLOAD,2023-06-10 01:21:27,15.08843384,0.000119,53.2175,39.2094,94.1224,265.9904,8.4246e-05,1.053e-05,0.0,0 STARLINK-5099,1 54009U 22125AX  23161.05657116  .00001053  00000-0  84246-4 0  9991,2 54009  53.2175  39.2094 0001190  94.1224 265.9904 15.08843384 37956,6917.87,95.437,540.558,538.912,0.0
54009.0,STARLINK-5099,PAYLOAD,2023-06-10 15:39:56,15.08840199,0.0001257,53.2175,36.5332,103.9036,256.2097,-6.098e-05,-1.258e-05,0.0,0 STARLINK-5099,1 54009U 22125AX  23161.65273868 -.00001258  00000-0 -60980-4 0  9993,2 54009  53.2175  36.5332 0001257 103.9036 256.2097 15.08840199 38098,6917.88,95.438,540.614,538.875,0.0
54009.0,STARLINK-5099,PAYLOAD,2023-06-10 22:01:28,15.08844372,0.0001266,53.2174,35.3439,103.2297,256.8836,-2.665e-05,-7.12e-06,0.0,0 STARLINK-5099,1 54009U 22125AX  23161.91769464 -.00000712  00000-0 -26650-4 0  9994,2 54009  53.2174  35.3439 0001266 103.2297 256.8836 15.08844372 38087,6917.867,95.437,540.608,538.856,0.0
54009.0,STARLINK-5099,PAYLOAD,2023-06-11 02:47:38,15.08845873,0.0001328,53.2172,34.4535,93.2224,266.892,1.1669e-06,-2.69e-06,0.0,0 STARLINK-5099,1 54009U 22125AX  23162.11641227 -.00000269  00000-0  11669-5 0  9994,2 54009  53.2172  34.4535 0001328  93.2224 266.8920 15.08845873 38160,6917.862,95.437,540.646,538.809,0.0
